{
    "links": {
        "self": "http://www.neowsapp.com/rest/v1/neo/3644833?api_key=iIulBulltgU6a56xZRHN4H3l9WmuAYTsLGpBGhQ2"
    },
    "id": "3644833",
    "neo_reference_id": "3644833",
    "name": "(2013 NO11)",
    "designation": "2013 NO11",
    "nasa_jpl_url": "http://ssd.jpl.nasa.gov/sbdb.cgi?sstr=3644833",
    "absolute_magnitude_h": 22.9,
    "estimated_diameter": {
        "kilometers": {
            "estimated_diameter_min": 0.0699125232,
            "estimated_diameter_max": 0.1563291544
        },
        "meters": {
            "estimated_diameter_min": 69.9125232246,
            "estimated_diameter_max": 156.3291544087
        },
        "miles": {
            "estimated_diameter_min": 0.0434416145,
            "estimated_diameter_max": 0.097138403
        },
        "feet": {
            "estimated_diameter_min": 229.3718026961,
            "estimated_diameter_max": 512.8909429502
        }
    },
    "is_potentially_hazardous_asteroid": false,
    "close_approach_data": [
        {
            "close_approach_date": "2013-07-28",
            "close_approach_date_full": "2013-Jul-28 09:46",
            "epoch_date_close_approach": 1375004760000,
            "relative_velocity": {
                "kilometers_per_second": "6.8384722093",
                "kilometers_per_hour": "24618.4999533106",
                "miles_per_hour": "15296.9784848779"
            },
            "miss_distance": {
                "astronomical": "0.1791329259",
                "lunar": "69.6827081751",
                "kilometers": "26797904.161507833",
                "miles": "16651445.5081727754"
            },
            "orbiting_body": "Earth"
        }
    ],
    "orbital_data": {
        "orbit_id": "10",
        "orbit_determination_date": "2017-04-06 08:45:25",
        "first_observation_date": "2013-07-08",
        "last_observation_date": "2013-08-05",
        "data_arc_in_days": 28,
        "observations_used": 30,
        "orbit_uncertainty": "8",
        "minimum_orbit_intersection": ".178946",
        "jupiter_tisserand_invariant": "3.470",
        "epoch_osculation": "2456483.5",
        "eccentricity": ".4710420069037552",
        "semi_major_axis": "2.228348427497803",
        "inclination": "10.51940681374306",
        "ascending_node_longitude": "108.9664666298401",
        "orbital_period": "1214.991039018729",
        "perihelion_distance": "1.178702712128411",
        "perihelion_argument": "207.0170748538297",
        "aphelion_distance": "3.277994142867195",
        "perihelion_time": "2456513.472636560203",
        "mean_anomaly": "351.1191532981284",
        "mean_motion": ".2962984815844809",
        "equinox": "J2000",
        "orbit_class": {
            "orbit_class_type": "AMO",
            "orbit_class_description": "Near-Earth asteroid orbits similar to that of 1221 Amor",
            "orbit_class_range": "1.017 AU < q (perihelion) < 1.3 AU"
        }
    },
    "is_sentry_object": false
}